0 COSMOS 1275 DEB
1 19853U 81053MN  13278.59564994  .00000495  00000-0  58698-3 0  9206
2 19853 082.9865 021.5347 0125190 009.9978 050.2522 13.62583580223462
0 COSMOS 1275 DEB
1 19853U 81053MN  13280.74426054  .00000463  00000-0  54772-3 0  9215
2 19853 082.9870 019.9863 0125078 004.0387 149.9170 13.62584853223758
0 COSMOS 1275 DEB
1 19853U 81053MN  13283.58890227  .00000466  00000-0  55106-3 0  9223
2 19853 082.9873 017.9349 0124971 356.1967 063.8205 13.62587753224143
0 COSMOS 1275 DEB
1 19853U 81053MN  13286.22588087  .00000494  00000-0  58596-3 0  9233
2 19853 082.9874 016.0336 0124867 348.9183 039.1081 13.62589651224500
0 COSMOS 1275 DEB
1 19853U 81053MN  13288.58286003  .00000625  00000-0  74642-3 0  9244
2 19853 082.9873 014.3344 0124812 342.3955 080.9387 13.62592375224829
0 COSMOS 1275 DEB
1 19853U 81053MN  13292.54779058  .00000597  00000-0  71271-3 0  9256
2 19853 082.9865 011.4753 0124716 331.4238 090.4061 13.62597711225362
